BEIDOU-2 G4 (C04)       
1 37210U 10057A   26180.51433594 -.00000105  00000+0  00000+0 0  9992
2 37210   3.6768  68.8782 0004793 190.3034   3.5548  1.00271614 57411
BEIDOU-2 IGSO-2 (C07)   
1 37256U 10068A   26179.68323434 -.00000195  00000+0  00000+0 0  9990
2 37256  47.5257 271.6882 0056345 213.6566 145.5786  1.00280165 56900
BEIDOU-2 IGSO-3 (C08)   
1 37384U 11013A   26180.53855912 -.00000164  00000+0  00000+0 0  9996
2 37384  62.4244  40.0349 0035201 183.8161 354.9022  1.00265262 55782
BEIDOU-2 IGSO-4 (C09)   
1 37763U 11038A   26179.94400245  .00000017  00000+0  00000+0 0  9998
2 37763  54.6034 165.5678 0159694 231.4501 313.7115  1.00283415 54765
BEIDOU-2 IGSO-5 (C10)   
1 37948U 11073A   26175.65702808 -.00000196  00000+0  00000+0 0  9995
2 37948  47.6633 271.4526 0114223 222.0346 107.5350  1.00272136 53204
BEIDOU-2 G5 (C05)       
1 38091U 12008A   26179.98575640  .00000064  00000+0  00000+0 0  9999
2 38091   3.6028  69.6321 0008519 275.8995 345.1785  1.00276642 52487
BEIDOU-2 M3 (C11)       
1 38250U 12018A   26180.00176581 -.00000084  00000+0  00000+0 0  9996
2 38250  55.7467 304.4763 0020334 273.2748  86.4903  1.86230042 96164
BEIDOU-2 M4 (C12)       
1 38251U 12018B   26178.86016397 -.00000092  00000+0  00000+0 0  9995
2 38251  55.6479 303.7280 0011522 274.3517  85.5111  1.86229628 96145
BEIDOU-2 M6 (C14)       
1 38775U 12050B   26176.95898030 -.00000089  00000+0  00000+0 0  9998
2 38775  56.5518  62.6042 0013516 358.2268   1.8099  1.86231117 93472
BEIDOU-2 G6 (C02)       
1 38953U 12059A   26179.98775090 -.00000168  00000+0  00000+0 0  9999
2 38953   4.4509  73.4021 0009615 329.2064 314.0896  1.00271113 50020
BEIDOU-3S IGSO-1S (C31) 
1 40549U 15019A   26178.80438100 -.00000163  00000+0  00000+0 0  9995
2 40549  49.1741 295.3331 0039098 191.8080 168.8013  1.00249344 41180
BEIDOU-3S M2S (C58)     
1 40748U 15037A   26179.59929838 -.00000084  00000+0  00000+0 0  9998
2 40748  54.8599 301.6527 0008567 258.3318 101.5721  1.86232293 74335
BEIDOU-3S M1S (C57)     
1 40749U 15037B   26178.19464110 -.00000096  00000+0  00000+0 0  9994
2 40749  54.8580 301.6893 0003219  62.4123 297.6156  1.86255050 74312
BEIDOU-3S IGSO-2S (C56) 
1 40938U 15053A   26179.96992363 -.00000099  00000+0  00000+0 0  9997
2 40938  49.2020 258.6412 0065667 193.1508 268.9330  1.00257545 39471
